[{"OBJECT_NAME":"OBJECT AD","OBJECT_ID":"2023-085AD","EPOCH":"2026-03-09T21:41:29.115744","MEAN_MOTION":15.31779154,"ECCENTRICITY":0.00101154,"INCLINATION":97.4841,"RA_OF_ASC_NODE":180.2223,"ARG_OF_PERICENTER":77.5993,"MEAN_ANOMALY":282.638,"EPHEMERIS_TYPE":0,"CLASSIFICATION_TYPE":"U","NORAD_CAT_ID":57031,"ELEMENT_SET_NO":999,"REV_AT_EPOCH":15156,"BSTAR":0.00068352515,"MEAN_MOTION_DOT":0.00020961,"MEAN_MOTION_DDOT":0},{"OBJECT_NAME":"STARLINK-32528","OBJECT_ID":"2024-196T","EPOCH":"2026-03-09T12:09:23.160384","MEAN_MOTION":15.30169385,"ECCENTRICITY":0.00012967,"INCLINATION":53.1604,"RA_OF_ASC_NODE":102.5375,"ARG_OF_PERICENTER":74.5088,"MEAN_ANOMALY":285.6056,"EPHEMERIS_TYPE":0,"CLASSIFICATION_TYPE":"U","NORAD_CAT_ID":61724,"ELEMENT_SET_NO":999,"REV_AT_EPOCH":7592,"BSTAR":-4.2081254e-5,"MEAN_MOTION_DOT":-1.604e-5,"MEAN_MOTION_DDOT":0}]
